{
  "type": "FeatureCollection",
  "features": [
    {
      "type": "Feature",
      "geometry": {
        "type": "Point",
        "coordinates": [-71.2527453587539, -13.350457049061385]
      },
      "properties": {
        "CODIGOU": "040013823",
        "FEC_DENU": "Tue Jul 18 2023 00:00:00 GMT+0000",
        "CONCESION": "FENIX DE ORO BC",
        "TIT_CONCES": "KLEN ALCIDES CCARITA MEZA"
      }
    },
    {
      "type": "Feature",
      "geometry": {
        "type": "Point",
        "coordinates": [-71.23379249616433, -13.296407075315125]
      },
      "properties": {
        "CODIGOU": "040029426",
        "FEC_DENU": "Mon Jun 01 2026 00:00:00 GMT+0000",
        "CONCESION": "SANTA ROSA DE LIMA 2026",
        "TIT_CONCES": "WALTER GARCIA LIMA"
      }
    }
  ]
}